[
    {
        "Altitude(m)": 567491.9905618698,
        "Argument of Periapsis(deg)": 0.0,
        "Eccentricity": 0.0,
        "Inclination(deg)": 97.0,
        "Latitude(deg)": -6.321186915804917,
        "Longitude(deg)": 139.25563178536115,
        "Mean Anomaly(deg)": 186.20690000000002,
        "RAAN(deg)": 60.0,
        "Satellite Name": "Starlink Shell 3 1730",
        "Satellite Number": 1730,
        "Semi-Major Axis(m)": 6938478.169268562,
        "Time(s)": 0
    },
    {
        "Altitude(m)": 567617.6799880263,
        "Argument of Periapsis(deg)": -0.0003965466804030246,
        "Eccentricity": 0.0,
        "Inclination(deg)": 97.0,
        "Latitude(deg)": -6.945254686300054,
        "Longitude(deg)": 139.136708268173,
        "Mean Anomaly(deg)": 186.83237619770506,
        "RAAN(deg)": 60.000104334274006,
        "Satellite Name": "Starlink Shell 3 1730",
        "Satellite Number": 1730,
        "Semi-Major Axis(m)": 6938478.169268562,
        "Time(s)": 10
    },
    {
        "Altitude(m)": 567747.4254088869,
        "Argument of Periapsis(deg)": -0.0007930933608060492,
        "Eccentricity": 0.0,
        "Inclination(deg)": 97.0,
        "Latitude(deg)": -7.569274573829038,
        "Longitude(deg)": 139.01758386290584,
        "Mean Anomaly(deg)": 187.45785239541007,
        "RAAN(deg)": 60.00020866854802,
        "Satellite Name": "Starlink Shell 3 1730",
        "Satellite Number": 1730,
        "Semi-Major Axis(m)": 6938478.169268562,
        "Time(s)": 20
    },
    {
        "Altitude(m)": 567881.1930947795,
        "Argument of Periapsis(deg)": -0.001189640041209074,
        "Eccentricity": 0.0,
        "Inclination(deg)": 97.0,
        "Latitude(deg)": -8.19324360143575,
        "Longitude(deg)": 138.8982393968212,
        "Mean Anomaly(deg)": 188.08332859311514,
        "RAAN(deg)": 60.00031300282202,
        "Satellite Name": "Starlink Shell 3 1730",
        "Satellite Number": 1730,
        "Semi-Major Axis(m)": 6938478.169268562,
        "Time(s)": 30
    },
    {
        "Altitude(m)": 568018.9473343162,
        "Argument of Periapsis(deg)": -0.0015861867216120985,
        "Eccentricity": 0.0,
        "Inclination(deg)": 97.0,
        "Latitude(deg)": -8.81715879278233,
        "Longitude(deg)": 138.77865599230304,
        "Mean Anomaly(deg)": 188.7088047908202,
        "RAAN(deg)": 60.000417337096025,
        "Satellite Name": "Starlink Shell 3 1730",
        "Satellite Number": 1730,
        "Semi-Major Axis(m)": 6938478.169268562,
        "Time(s)": 40
    },
    {
        "Altitude(m)": 568160.6504491682,
        "Argument of Periapsis(deg)": -0.0019827334020151234,
        "Eccentricity": 0.0,
        "Inclination(deg)": 97.0,
        "Latitude(deg)": -9.441017171863068,
        "Longitude(deg)": 138.6588140389704,
        "Mean Anomaly(deg)": 189.3342809885252,
        "RAAN(deg)": 60.00052167137004,
        "Satellite Name": "Starlink Shell 3 1730",
        "Satellite Number": 1730,
        "Semi-Major Axis(m)": 6938478.169268562,
        "Time(s)": 50
    },
    {
        "Altitude(m)": 568306.2628098375,
        "Argument of Periapsis(deg)": -0.002379280082418148,
        "Eccentricity": 0.0,
        "Inclination(deg)": 97.0,
        "Latitude(deg)": -10.064815762682295,
        "Longitude(deg)": 138.53869367819863,
        "Mean Anomaly(deg)": 189.95975718623026,
        "RAAN(deg)": 60.00062600564405,
        "Satellite Name": "Starlink Shell 3 1730",
        "Satellite Number": 1730,
        "Semi-Major Axis(m)": 6938478.169268562,
        "Time(s)": 60
    },
    {
        "Altitude(m)": 568455.7428524025,
        "Argument of Periapsis(deg)": -0.002775826762821173,
        "Eccentricity": 0.0,
        "Inclination(deg)": 97.0,
        "Latitude(deg)": -10.68855158889291,
        "Longitude(deg)": 138.4182752871316,
        "Mean Anomaly(deg)": 190.5852333839353,
        "RAAN(deg)": 60.00073033991806,
        "Satellite Name": "Starlink Shell 3 1730",
        "Satellite Number": 1730,
        "Semi-Major Axis(m)": 6938478.169268562,
        "Time(s)": 70
    },
    {
        "Altitude(m)": 568609.0470962278,
        "Argument of Periapsis(deg)": -0.003172373443224197,
        "Eccentricity": 0.0,
        "Inclination(deg)": 97.0,
        "Latitude(deg)": -11.31222167339049,
        "Longitude(deg)": 138.29753844926765,
        "Mean Anomaly(deg)": 191.21070958164034,
        "RAAN(deg)": 60.00083467419207,
        "Satellite Name": "Starlink Shell 3 1730",
        "Satellite Number": 1730,
        "Semi-Major Axis(m)": 6938478.169268562,
        "Time(s)": 80
    },
    {
        "Altitude(m)": 568766.1301626633,
        "Argument of Periapsis(deg)": -0.0035689201236272223,
        "Eccentricity": 0.0,
        "Inclination(deg)": 97.0,
        "Latitude(deg)": -11.935823037862688,
        "Longitude(deg)": 138.1764624373166,
        "Mean Anomaly(deg)": 191.83618577934539,
        "RAAN(deg)": 60.00093900846607,
        "Satellite Name": "Starlink Shell 3 1730",
        "Satellite Number": 1730,
        "Semi-Major Axis(m)": 6938478.169268562,
        "Time(s)": 90
    },
    {
        "Altitude(m)": 568926.9447946866,
        "Argument of Periapsis(deg)": -0.003965466804030247,
        "Eccentricity": 0.0,
        "Inclination(deg)": 97.0,
        "Latitude(deg)": -12.559352702288253,
        "Longitude(deg)": 138.05502669540806,
        "Mean Anomaly(deg)": 192.46166197705043,
        "RAAN(deg)": 60.00104334274008,
        "Satellite Name": "Starlink Shell 3 1730",
        "Satellite Number": 1730,
        "Semi-Major Axis(m)": 6938478.169268562,
        "Time(s)": 100
    },
    {
        "Altitude(m)": 569091.441877452,
        "Argument of Periapsis(deg)": -0.004362013484433271,
        "Eccentricity": 0.0,
        "Inclination(deg)": 97.0,
        "Latitude(deg)": -13.18280768438111,
        "Longitude(deg)": 137.9332098077238,
        "Mean Anomaly(deg)": 193.0871381747555,
        "RAAN(deg)": 60.00114767701409,
        "Satellite Name": "Starlink Shell 3 1730",
        "Satellite Number": 1730,
        "Semi-Major Axis(m)": 6938478.169268562,
        "Time(s)": 110
    },
    {
        "Altitude(m)": 569259.5704598338,
        "Argument of Periapsis(deg)": -0.004758560164836296,
        "Eccentricity": 0.0,
        "Inclination(deg)": 97.0,
        "Latitude(deg)": -13.80618499897855,
        "Longitude(deg)": 137.81098997924775,
        "Mean Anomaly(deg)": 193.71261437246048,
        "RAAN(deg)": 60.0012520112881,
        "Satellite Name": "Starlink Shell 3 1730",
        "Satellite Number": 1730,
        "Semi-Major Axis(m)": 6938478.169268562,
        "Time(s)": 120
    },
    {
        "Altitude(m)": 569431.2777768244,
        "Argument of Periapsis(deg)": -0.005155106845239321,
        "Eccentricity": 0.0,
        "Inclination(deg)": 97.0,
        "Latitude(deg)": -14.429481657368507,
        "Longitude(deg)": 137.68834551570245,
        "Mean Anomaly(deg)": 194.33809057016555,
        "RAAN(deg)": 60.00135634556211,
        "Satellite Name": "Starlink Shell 3 1730",
        "Satellite Number": 1730,
        "Semi-Major Axis(m)": 6938478.169268562,
        "Time(s)": 130
    },
    {
        "Altitude(m)": 569606.5092728677,
        "Argument of Periapsis(deg)": -0.005551653525642346,
        "Eccentricity": 0.0,
        "Inclination(deg)": 97.0,
        "Latitude(deg)": -15.052694666548376,
        "Longitude(deg)": 137.56525378974044,
        "Mean Anomaly(deg)": 194.96356676787062,
        "RAAN(deg)": 60.00146067983612,
        "Satellite Name": "Starlink Shell 3 1730",
        "Satellite Number": 1730,
        "Semi-Major Axis(m)": 6938478.169268562,
        "Time(s)": 140
    },
    {
        "Altitude(m)": 569785.2086260832,
        "Argument of Periapsis(deg)": -0.005948200206045371,
        "Eccentricity": 0.0,
        "Inclination(deg)": 97.0,
        "Latitude(deg)": -15.675821028416472,
        "Longitude(deg)": 137.44169171907188,
        "Mean Anomaly(deg)": 195.58904296557571,
        "RAAN(deg)": 60.00156501411012,
        "Satellite Name": "Starlink Shell 3 1730",
        "Satellite Number": 1730,
        "Semi-Major Axis(m)": 6938478.169268562,
        "Time(s)": 150
    },
    {
        "Altitude(m)": 569967.3177733386,
        "Argument of Periapsis(deg)": -0.006344746886448394,
        "Eccentricity": 0.0,
        "Inclination(deg)": 97.0,
        "Latitude(deg)": -16.298857738888984,
        "Longitude(deg)": 137.3176362435888,
        "Mean Anomaly(deg)": 196.21451916328067,
        "RAAN(deg)": 60.001669348384134,
        "Satellite Name": "Starlink Shell 3 1730",
        "Satellite Number": 1730,
        "Semi-Major Axis(m)": 6938478.169268562,
        "Time(s)": 160
    },
    {
        "Altitude(m)": 570152.7769362216,
        "Argument of Periapsis(deg)": -0.00674129356685142,
        "Eccentricity": 0.0,
        "Inclination(deg)": 97.0,
        "Latitude(deg)": -16.92180178693528,
        "Longitude(deg)": 137.1930632885434,
        "Mean Anomaly(deg)": 196.8399953609858,
        "RAAN(deg)": 60.00177368265814,
        "Satellite Name": "Starlink Shell 3 1730",
        "Satellite Number": 1730,
        "Semi-Major Axis(m)": 6938478.169268562,
        "Time(s)": 170
    },
    {
        "Altitude(m)": 570341.5246478359,
        "Argument of Periapsis(deg)": -0.007137840247254445,
        "Eccentricity": 0.0,
        "Inclination(deg)": 97.0,
        "Latitude(deg)": -17.544650153530487,
        "Longitude(deg)": 137.0679482394501,
        "Mean Anomaly(deg)": 197.46547155869075,
        "RAAN(deg)": 60.00187801693215,
        "Satellite Name": "Starlink Shell 3 1730",
        "Satellite Number": 1730,
        "Semi-Major Axis(m)": 6938478.169268562,
        "Time(s)": 180
    }
]